COMMENT,ORIGINATOR,NORAD_CAT_ID,OBJECT_NAME,OBJECT_TYPE,CLASSIFICATION_TYPE,INTLDES,EPOCH,EPOCH_MICROSECONDS,MEAN_MOTION,ECCENTRICITY,INCLINATION,RA_OF_ASC_NODE,ARG_OF_PERICENTER,MEAN_ANOMALY,EPHEMERIS_TYPE,ELEMENT_SET_NO,REV_AT_EPOCH,BSTAR,MEAN_MOTION_DOT,MEAN_MOTION_DDOT,FILE,TLE_LINE0,TLE_LINE1,TLE_LINE2,OBJECT_ID,OBJECT_NUMBER,SEMIMAJOR_AXIS,PERIOD,APOGEE,PERIGEE,DECAYED,date
GENERATED VIA SPACETRACK.ORG API,18 SPCS,52181,SPACEBEE-131,PAYLOAD,U,22033AA,2023/1/1 10:49,740352,15.29237366,0.0008629,97.3675,85.0409,46.0847,314.1104,0,999,4186,0.00097124,0.00027577,0,3728759,0 SPACEBEE-131,1 52181U 22033AA  23001.45111968  .00027577  00000-0  97124-3 0  9992,2 52181  97.3675  85.0409 0008629  46.0847 314.1104 15.29237366 41863,2022-033AA,52181,6856.228,94.165,484.009,472.177,1,2023/1/1
GENERATED VIA SPACETRACK.ORG API,18 SPCS,52181,SPACEBEE-131,PAYLOAD,U,22033AA,2023/1/1 17:06,723840,15.29249568,0.0008611,97.3675,85.3001,45.2502,314.9437,0,999,4190,0.00086621,0.00024586,0,3728952,0 SPACEBEE-131,1 52181U 22033AA  23001.71285560  .00024586  00000-0  86621-3 0  9998,2 52181  97.3675  85.3001 0008611  45.2502 314.9437 15.29249568 41903,2022-033AA,52181,6856.191,94.164,483.96,472.152,1,2023/1/2
GENERATED VIA SPACETRACK.ORG API,18 SPCS,52181,SPACEBEE-131,PAYLOAD,U,22033AA,2023/1/2 4:06,680000,15.29276176,0.0008633,97.3678,85.7543,43.6884,316.5039,0,999,4195,0.0010017,0.00028481,0,3729319,0 SPACEBEE-131,1 52181U 22033AA  23002.17088750  .00028481  00000-0  10017-2 0  9994,2 52181  97.3678  85.7543 0008633  43.6884 316.5039 15.29276176 41956,2022-033AA,52181,6856.112,94.162,483.896,472.058,1,2023/1/3
GENERATED VIA SPACETRACK.ORG API,18 SPCS,52181,SPACEBEE-131,PAYLOAD,U,22033AA,2023/1/2 11:57,411136,15.29292116,0.0008591,97.368,86.0782,42.6711,317.5195,0,999,4202,0.0009551,0.00027161,0,3729583,0 SPACEBEE-131,1 52181U 22033AA  23002.49804874  .00027161  00000-0  95510-3 0  9998,2 52181  97.3680  86.0782 0008591  42.6711 317.5195 15.29292116 42024,2022-033AA,52181,6856.064,94.161,483.819,472.039,1,2023/1/4
GENERATED VIA SPACETRACK.ORG API,18 SPCS,52181,SPACEBEE-131,PAYLOAD,U,22033AA,2023/1/3 3:39,58656,15.29319656,0.0008603,97.3679,86.7267,40.6444,319.5437,0,999,4210,0.00078052,0.00022187,0,3730335,0 SPACEBEE-131,1 52181U 22033AA  23003.15236179  .00022187  00000-0  78052-3 0  9994,2 52181  97.3679  86.7267 0008603  40.6444 319.5437 15.29319656 42101,2022-033AA,52181,6855.982,94.16,483.745,471.949,1,2023/1/5
GENERATED VIA SPACETRACK.ORG API,18 SPCS,52181,SPACEBEE-131,PAYLOAD,U,22033AA,2023/1/3 5:13,238304,15.29323227,0.0008611,97.3679,86.7915,40.4781,319.7099,0,999,4213,0.00075612,0.00021491,0,3730926,0 SPACEBEE-131,1 52181U 22033AA  23003.21779211  .00021491  00000-0  75612-3 0  9996,2 52181  97.3679  86.7915 0008611  40.4781 319.7099 15.29323227 42130,2022-033AA,52181,6855.971,94.159,483.74,471.933,1,2023/1/6
GENERATED VIA SPACETRACK.ORG API,18 SPCS,52181,SPACEBEE-131,PAYLOAD,U,22033AA,2023/1/4 4:46,948064,15.29372418,0.000855,97.3678,87.7638,37.1815,323.0016,0,999,4228,0.00099605,0.00028403,0,3731823,0 SPACEBEE-131,1 52181U 22033AA  23004.19923551  .00028403  00000-0  99605-3 0  9990,2 52181  97.3678  87.7638 0008550  37.1815 323.0016 15.29372418 42284,2022-033AA,52181,6855.824,94.156,483.551,471.827,1,2023/1/7
GENERATED VIA SPACETRACK.ORG API,18 SPCS,52181,SPACEBEE-131,PAYLOAD,U,22033AA,2023/1/4 4:46,948064,15.29372418,0.000855,97.3678,87.7638,37.1815,323.0016,0,999,4226,0.00099605,0.00028403,0,3731839,0 SPACEBEE-131,1 52181U 22033AA  23004.19923551  .00028403  00000-0  99605-3 0  9990,2 52181  97.3678  87.7638 0008550  37.1815 323.0016 15.29372418 42262,2022-033AA,52181,6855.824,94.156,483.551,471.827,1,2023/1/8
GENERATED VIA SPACETRACK.ORG API,18 SPCS,52181,SPACEBEE-131,PAYLOAD,U,22033AA,2023/1/5 12:11,126688,15.29451935,0.0008447,97.3677,89.06,32.8964,327.2801,0,999,4246,0.00088336,0.00025231,0,3732917,0 SPACEBEE-131,1 52181U 22033AA  23005.50776767  .00025231  00000-0  88336-3 0  9996,2 52181  97.3677  89.0600 0008447  32.8964 327.2801 15.29451935 42469,2022-033AA,52181,6855.587,94.151,483.242,471.661,1,2023/1/9
GENERATED VIA SPACETRACK.ORG API,18 SPCS,52181,SPACEBEE-131,PAYLOAD,U,22033AA,2023/1/5 12:11,126688,15.29451935,0.0008447,97.3677,89.06,32.8964,327.2801,0,999,4248,0.00088336,0.00025231,0,3732939,0 SPACEBEE-131,1 52181U 22033AA  23005.50776767  .00025231  00000-0  88336-3 0  9996,2 52181  97.3677  89.0600 0008447  32.8964 327.2801 15.29451935 42481,2022-033AA,52181,6855.587,94.151,483.242,471.661,1,2023/1/10
GENERATED VIA SPACETRACK.ORG API,18 SPCS,52181,SPACEBEE-131,PAYLOAD,U,22033AA,2023/1/6 11:44,822848,15.29521521,0.0008408,97.3671,90.0321,29.1944,330.9765,0,999,4261,0.0010757,0.0003083,0,3734013,0 SPACEBEE-131,1 52181U 22033AA  23006.48911832  .00030830  00000-0  10757-2 0  9990,2 52181  97.3671  90.0321 0008408  29.1944 330.9765 15.29521521 42615,2022-033AA,52181,6855.379,94.147,483.008,471.48,1,2023/1/11
GENERATED VIA SPACETRACK.ORG API,18 SPCS,52181,SPACEBEE-131,PAYLOAD,U,22033AA,2023/1/6 11:44,822848,15.29521521,0.0008408,97.3671,90.0321,29.1944,330.9765,0,999,4263,0.0010757,0.0003083,0,3734255,0 SPACEBEE-131,1 52181U 22033AA  23006.48911832  .00030830  00000-0  10757-2 0  9990,2 52181  97.3671  90.0321 0008408  29.1944 330.9765 15.29521521 42637,2022-033AA,52181,6855.379,94.147,483.008,471.48,1,2023/1/12
GENERATED VIA SPACETRACK.ORG API,18 SPCS,52181,SPACEBEE-131,PAYLOAD,U,22033AA,2023/1/7 3:26,783712,15.29558628,0.0008403,97.367,90.6804,27.0995,333.0682,0,999,4273,0.00098733,0.00028314,0,3735161,0 SPACEBEE-131,1 52181U 22033AA  23007.14333083  .00028314  00000-0  98733-3 0  9995,2 52181  97.3670  90.6804 0008403  27.0995 333.0682 15.29558628 42737,2022-033AA,52181,6855.268,94.145,482.893,471.372,1,2023/1/13
GENERATED VIA SPACETRACK.ORG API,18 SPCS,52181,SPACEBEE-131,PAYLOAD,U,22033AA,2023/1/8 4:33,96576,15.29620162,0.0008291,97.3671,91.7175,23.088,337.0731,0,999,4287,0.00097925,0.00028133,0,3735891,0 SPACEBEE-131,1 52181U 22033AA  23008.19003584  .00028133  00000-0  97925-3 0  9992,2 52181  97.3671  91.7175 0008291  23.0880 337.0731 15.29620162 42872,2022-033AA,52181,6855.084,94.141,482.632,471.265,1,2023/1/14
GENERATED VIA SPACETRACK.ORG API,18 SPCS,52181,SPACEBEE-131,PAYLOAD,U,22033AA,2023/1/8 4:33,96576,15.29620162,0.0008291,97.3671,91.7175,23.088,337.0731,0,999,4289,0.00097925,0.00028133,0,3736235,0 SPACEBEE-131,1 52181U 22033AA  23008.19003584  .00028133  00000-0  97925-3 0  9992,2 52181  97.3671  91.7175 0008291  23.0880 337.0731 15.29620162 42894,2022-033AA,52181,6855.084,94.141,482.632,471.265,1,2023/1/15
GENERATED VIA SPACETRACK.ORG API,18 SPCS,52181,SPACEBEE-131,PAYLOAD,U,22033AA,2023/1/9 4:06,890944,15.29682711,0.0008266,97.3665,92.69,20.1074,340.0491,0,999,4304,0.0011199,0.00032264,0,3737263,0 SPACEBEE-131,1 52181U 22033AA  23009.17128346  .00032264  00000-0  11199-2 0  9993,2 52181  97.3665  92.6900 0008266  20.1074 340.0491 15.29682711 43041,2022-033AA,52181,6854.897,94.137,482.428,471.096,1,2023/1/16
GENERATED VIA SPACETRACK.ORG API,18 SPCS,52181,SPACEBEE-131,PAYLOAD,U,22033AA,2023/1/9 4:06,890944,15.29682711,0.0008266,97.3665,92.69,20.1074,340.0491,0,999,4302,0.0011199,0.00032264,0,3737424,0 SPACEBEE-131,1 52181U 22033AA  23009.17128346  .00032264  00000-0  11199-2 0  9993,2 52181  97.3665  92.6900 0008266  20.1074 340.0491 15.29682711 43029,2022-033AA,52181,6854.897,94.137,482.428,471.096,1,2023/1/17
GENERATED VIA SPACETRACK.ORG API,18 SPCS,52181,SPACEBEE-131,PAYLOAD,U,22033AA,2023/1/10 5:13,971264,15.29744863,0.0008188,97.366,93.7271,16.6866,343.4642,0,999,4318,0.00103,0.00029714,0,3738536,0 SPACEBEE-131,1 52181U 22033AA  23010.21790476  .00029714  00000-0  10300-2 0  9998,2 52181  97.3660  93.7271 0008188  16.6866 343.4642 15.29744863 43188,2022-033AA,52181,6854.711,94.133,482.189,470.964,1,2023/1/18
GENERATED VIA SPACETRACK.ORG API,18 SPCS,52181,SPACEBEE-131,PAYLOAD,U,22033AA,2023/1/10 11:30,397344,15.2976112,0.0008141,97.3659,93.9862,15.8424,344.3069,0,999,4324,0.0010441,0.00030138,0,3739038,0 SPACEBEE-131,1 52181U 22033AA  23010.47955321  .00030138  00000-0  10441-2 0  9996,2 52181  97.3659  93.9862 0008141  15.8424 344.3069 15.29761120 43249,2022-033AA,52181,6854.663,94.132,482.108,470.947,1,2023/1/19
GENERATED VIA SPACETRACK.ORG API,18 SPCS,52181,SPACEBEE-131,PAYLOAD,U,22033AA,2023/1/11 4:46,752544,15.29811393,0.0008117,97.3656,94.6993,13.2683,346.877,0,999,4333,0.0012001,0.00034727,0,3740032,0 SPACEBEE-131,1 52181U 22033AA  23011.19907121  .00034727  00000-0  12001-2 0  9993,2 52181  97.3656  94.6993 0008117  13.2683 346.8770 15.29811393 43335,2022-033AA,52181,6854.513,94.129,481.941,470.814,1,2023/1/20
GENERATED VIA SPACETRACK.ORG API,18 SPCS,52181,SPACEBEE-131,PAYLOAD,U,22033AA,2023/1/11 4:46,752544,15.29811393,0.0008117,97.3656,94.6993,13.2683,346.877,0,999,4335,0.0012001,0.00034727,0,3740054,0 SPACEBEE-131,1 52181U 22033AA  23011.19907121  .00034727  00000-0  12001-2 0  9993,2 52181  97.3656  94.6993 0008117  13.2683 346.8770 15.29811393 43357,2022-033AA,52181,6854.513,94.129,481.941,470.814,1,2023/1/21
GENERATED VIA SPACETRACK.ORG API,18 SPCS,52181,SPACEBEE-131,PAYLOAD,U,22033AA,2023/1/11 15:45,106240,15.29844346,0.0008089,97.3655,95.1531,11.5823,348.5602,0,999,4342,0.0012383,0.00035876,0,3740419,0 SPACEBEE-131,1 52181U 22033AA  23011.65693410  .00035876  00000-0  12383-2 0  9996,2 52181  97.3655  95.1531 0008089  11.5823 348.5602 15.29844346 43420,2022-033AA,52181,6854.414,94.127,481.824,470.735,1,2023/1/22
GENERATED VIA SPACETRACK.ORG API,18 SPCS,52181,SPACEBEE-131,PAYLOAD,U,22033AA,2023/1/12 4:19,670880,15.29884636,0.000807,97.3653,95.6717,9.5772,350.5621,0,999,4350,0.0012911,0.00037463,0,3742227,0 SPACEBEE-131,1 52181U 22033AA  23012.18019295  .00037463  00000-0  12911-2 0  9999,2 52181  97.3653  95.6717 0008070   9.5772 350.5621 15.29884636 43508,2022-033AA,52181,6854.294,94.125,481.69,470.627,1,2023/1/23
